[
    {
        "Altitude(m)": 558585.9266830091,
        "Argument of Periapsis(deg)": 0.013245982221427002,
        "Eccentricity": 0.0,
        "Inclination(deg)": 53.0,
        "Latitude(deg)": -19.002234097079835,
        "Longitude(deg)": 108.37972872503215,
        "Mean Anomaly(deg)": 203.8195857351552,
        "RAAN(deg)": 14.980286737056032,
        "Satellite Name": "Starlink Shell 1 77",
        "Satellite Number": 77,
        "Semi-Major Axis(m)": 6931778.249405717,
        "Time(s)": 380
    },
    {
        "Altitude(m)": 558740.9677343399,
        "Argument of Periapsis(deg)": 0.013594560700938237,
        "Eccentricity": 0.0,
        "Inclination(deg)": 53.0,
        "Latitude(deg)": -19.487598075642886,
        "Longitude(deg)": 108.76024558065943,
        "Mean Anomaly(deg)": 204.44641693871188,
        "RAAN(deg)": 14.979767966978562,
        "Satellite Name": "Starlink Shell 1 77",
        "Satellite Number": 77,
        "Semi-Major Axis(m)": 6931778.249405717,
        "Time(s)": 390
    },
    {
        "Altitude(m)": 558897.5296849383,
        "Argument of Periapsis(deg)": 0.013943139180449475,
        "Eccentricity": 0.0,
        "Inclination(deg)": 53.0,
        "Latitude(deg)": -19.97193365573945,
        "Longitude(deg)": 109.14326608799699,
        "Mean Anomaly(deg)": 205.0732481422686,
        "RAAN(deg)": 14.979249196901089,
        "Satellite Name": "Starlink Shell 1 77",
        "Satellite Number": 77,
        "Semi-Major Axis(m)": 6931778.249405717,
        "Time(s)": 400
    },
    {
        "Altitude(m)": 559055.5584725823,
        "Argument of Periapsis(deg)": 0.014291717659960712,
        "Eccentricity": 0.0,
        "Inclination(deg)": 53.0,
        "Latitude(deg)": -20.45520775599759,
        "Longitude(deg)": 109.52886832554366,
        "Mean Anomaly(deg)": 205.7000793458253,
        "RAAN(deg)": 14.978730426823613,
        "Satellite Name": "Starlink Shell 1 77",
        "Satellite Number": 77,
        "Semi-Major Axis(m)": 6931778.249405717,
        "Time(s)": 410
    },
    {
        "Altitude(m)": 559214.9992316855,
        "Argument of Periapsis(deg)": 0.014640296139471948,
        "Eccentricity": 0.0,
        "Inclination(deg)": 53.0,
        "Latitude(deg)": -20.93738670704332,
        "Longitude(deg)": 109.91713090295491,
        "Mean Anomaly(deg)": 206.326910549382,
        "RAAN(deg)": 14.978211656746142,
        "Satellite Name": "Starlink Shell 1 77",
        "Satellite Number": 77,
        "Semi-Major Axis(m)": 6931778.249405717,
        "Time(s)": 420
    },
    {
        "Altitude(m)": 559375.796317749,
        "Argument of Periapsis(deg)": 0.014988874618983185,
        "Eccentricity": 0.0,
        "Inclination(deg)": 53.0,
        "Latitude(deg)": -21.4184362302707,
        "Longitude(deg)": 110.30813348945314,
        "Mean Anomaly(deg)": 206.95374175293875,
        "RAAN(deg)": 14.977692886668668,
        "Satellite Name": "Starlink Shell 1 77",
        "Satellite Number": 77,
        "Semi-Major Axis(m)": 6931778.249405717,
        "Time(s)": 430
    },
    {
        "Altitude(m)": 559537.8933321519,
        "Argument of Periapsis(deg)": 0.015337453098494424,
        "Eccentricity": 0.0,
        "Inclination(deg)": 53.0,
        "Latitude(deg)": -21.898321416135914,
        "Longitude(deg)": 110.70195734168888,
        "Mean Anomaly(deg)": 207.58057295649547,
        "RAAN(deg)": 14.977174116591195,
        "Satellite Name": "Starlink Shell 1 77",
        "Satellite Number": 77,
        "Semi-Major Axis(m)": 6931778.249405717,
        "Time(s)": 440
    },
    {
        "Altitude(m)": 559701.2331473334,
        "Argument of Periapsis(deg)": 0.01568603157800566,
        "Eccentricity": 0.0,
        "Inclination(deg)": 53.0,
        "Latitude(deg)": -22.37700670196595,
        "Longitude(deg)": 111.09868431810476,
        "Mean Anomaly(deg)": 208.20740416005216,
        "RAAN(deg)": 14.976655346513724,
        "Satellite Name": "Starlink Shell 1 77",
        "Satellite Number": 77,
        "Semi-Major Axis(m)": 6931778.249405717,
        "Time(s)": 450
    },
    {
        "Altitude(m)": 559865.7579322964,
        "Argument of Periapsis(deg)": 0.0160346100575169,
        "Eccentricity": 0.0,
        "Inclination(deg)": 53.0,
        "Latitude(deg)": -22.854455849275237,
        "Longitude(deg)": 111.49839740546392,
        "Mean Anomaly(deg)": 208.83423536360888,
        "RAAN(deg)": 14.976136576436252,
        "Satellite Name": "Starlink Shell 1 77",
        "Satellite Number": 77,
        "Semi-Major Axis(m)": 6931778.249405717,
        "Time(s)": 460
    },
    {
        "Altitude(m)": 560031.4091784643,
        "Argument of Periapsis(deg)": 0.016383188537028134,
        "Eccentricity": 0.0,
        "Inclination(deg)": 53.0,
        "Latitude(deg)": -23.33063192058262,
        "Longitude(deg)": 111.90118124458044,
        "Mean Anomaly(deg)": 209.46106656716563,
        "RAAN(deg)": 14.975617806358777,
        "Satellite Name": "Starlink Shell 1 77",
        "Satellite Number": 77,
        "Semi-Major Axis(m)": 6931778.249405717,
        "Time(s)": 470
    },
    {
        "Altitude(m)": 560198.1277258344,
        "Argument of Periapsis(deg)": 0.01673176701653937,
        "Eccentricity": 0.0,
        "Inclination(deg)": 53.0,
        "Latitude(deg)": -23.80549725572155,
        "Longitude(deg)": 112.30712114228285,
        "Mean Anomaly(deg)": 210.08789777072235,
        "RAAN(deg)": 14.975099036281303,
        "Satellite Name": "Starlink Shell 1 77",
        "Satellite Number": 77,
        "Semi-Major Axis(m)": 6931778.249405717,
        "Time(s)": 480
    },
    {
        "Altitude(m)": 560365.8537894714,
        "Argument of Periapsis(deg)": 0.017080345496050607,
        "Eccentricity": 0.0,
        "Inclination(deg)": 53.0,
        "Latitude(deg)": -24.27901344763979,
        "Longitude(deg)": 112.71630359524909,
        "Mean Anomaly(deg)": 210.71472897427904,
        "RAAN(deg)": 14.974580266203834,
        "Satellite Name": "Starlink Shell 1 77",
        "Satellite Number": 77,
        "Semi-Major Axis(m)": 6931778.249405717,
        "Time(s)": 490
    },
    {
        "Altitude(m)": 560534.5269862629,
        "Argument of Periapsis(deg)": 0.017428923975561842,
        "Eccentricity": 0.0,
        "Inclination(deg)": 53.0,
        "Latitude(deg)": -24.75114131768435,
        "Longitude(deg)": 113.12881681272678,
        "Mean Anomaly(deg)": 211.34156017783576,
        "RAAN(deg)": 14.97406149612636,
        "Satellite Name": "Starlink Shell 1 77",
        "Satellite Number": 77,
        "Semi-Major Axis(m)": 6931778.249405717,
        "Time(s)": 500
    },
    {
        "Altitude(m)": 560704.0863619779,
        "Argument of Periapsis(deg)": 0.01777750245507308,
        "Eccentricity": 0.0,
        "Inclination(deg)": 53.0,
        "Latitude(deg)": -25.22184089036734,
        "Longitude(deg)": 113.5447497251442,
        "Mean Anomaly(deg)": 211.96839138139245,
        "RAAN(deg)": 14.973542726048885,
        "Satellite Name": "Starlink Shell 1 77",
        "Satellite Number": 77,
        "Semi-Major Axis(m)": 6931778.249405717,
        "Time(s)": 510
    },
    {
        "Altitude(m)": 560874.4704185727,
        "Argument of Periapsis(deg)": 0.018126080934584315,
        "Eccentricity": 0.0,
        "Inclination(deg)": 53.0,
        "Latitude(deg)": -25.691071367613787,
        "Longitude(deg)": 113.96419250422252,
        "Mean Anomaly(deg)": 212.59522258494917,
        "RAAN(deg)": 14.973023955971417,
        "Satellite Name": "Starlink Shell 1 77",
        "Satellite Number": 77,
        "Semi-Major Axis(m)": 6931778.249405717,
        "Time(s)": 520
    },
    {
        "Altitude(m)": 561045.6171417764,
        "Argument of Periapsis(deg)": 0.018474659414095554,
        "Eccentricity": 0.0,
        "Inclination(deg)": 53.0,
        "Latitude(deg)": -26.158791102490373,
        "Longitude(deg)": 114.38723708157507,
        "Mean Anomaly(deg)": 213.22205378850592,
        "RAAN(deg)": 14.97250518589394,
        "Satellite Name": "Starlink Shell 1 77",
        "Satellite Number": 77,
        "Semi-Major Axis(m)": 6931778.249405717,
        "Time(s)": 530
    },
    {
        "Altitude(m)": 561217.4640288707,
        "Argument of Periapsis(deg)": 0.018823237893606792,
        "Eccentricity": 0.0,
        "Inclination(deg)": 53.0,
        "Latitude(deg)": -26.624957572416744,
        "Longitude(deg)": 114.81397615276765,
        "Mean Anomaly(deg)": 213.8488849920626,
        "RAAN(deg)": 14.971986415816467,
        "Satellite Name": "Starlink Shell 1 77",
        "Satellite Number": 77,
        "Semi-Major Axis(m)": 6931778.249405717,
        "Time(s)": 540
    },
    {
        "Altitude(m)": 561389.9481167478,
        "Argument of Periapsis(deg)": 0.019171816373118027,
        "Eccentricity": 0.0,
        "Inclination(deg)": 53.0,
        "Latitude(deg)": -27.08952735186462,
        "Longitude(deg)": 115.24450369241879,
        "Mean Anomaly(deg)": 214.47571619561936,
        "RAAN(deg)": 14.971467645738995,
        "Satellite Name": "Starlink Shell 1 77",
        "Satellite Number": 77,
        "Semi-Major Axis(m)": 6931778.249405717,
        "Time(s)": 550
    },
    {
        "Altitude(m)": 561563.0060101445,
        "Argument of Periapsis(deg)": 0.019520394852629266,
        "Eccentricity": 0.0,
        "Inclination(deg)": 53.0,
        "Latitude(deg)": -27.55245608455047,
        "Longitude(deg)": 115.67891546729126,
        "Mean Anomaly(deg)": 215.1025473991761,
        "RAAN(deg)": 14.970948875661524,
        "Satellite Name": "Starlink Shell 1 77",
        "Satellite Number": 77,
        "Semi-Major Axis(m)": 6931778.249405717,
        "Time(s)": 560
    }
]